[
    {
        "Altitude(m)": 554716.000556287,
        "Argument of Periapsis(deg)": 0.019868973332140504,
        "Eccentricity": 0.0,
        "Inclination(deg)": 53.0,
        "Latitude(deg)": 27.896190820160864,
        "Longitude(deg)": -154.00585872732876,
        "Mean Anomaly(deg)": 35.72937860273277,
        "RAAN(deg)": 284.97043010558406,
        "Satellite Name": "Starlink Shell 1 1254",
        "Satellite Number": 1254,
        "Semi-Major Axis(m)": 6931778.249405717,
        "Time(s)": 570
    },
    {
        "Altitude(m)": 554784.441243307,
        "Argument of Periapsis(deg)": 0.02021755181165174,
        "Eccentricity": 0.0,
        "Inclination(deg)": 53.0,
        "Latitude(deg)": 28.35708267141534,
        "Longitude(deg)": -153.5634514311085,
        "Mean Anomaly(deg)": 36.35620980628947,
        "RAAN(deg)": 284.96991133550654,
        "Satellite Name": "Starlink Shell 1 1254",
        "Satellite Number": 1254,
        "Semi-Major Axis(m)": 6931778.249405717,
        "Time(s)": 580
    },
    {
        "Altitude(m)": 554854.1352631856,
        "Argument of Periapsis(deg)": 0.020566130291162974,
        "Eccentricity": 0.0,
        "Inclination(deg)": 53.0,
        "Latitude(deg)": 28.816213351714477,
        "Longitude(deg)": -153.11685930583832,
        "Mean Anomaly(deg)": 36.98304100984621,
        "RAAN(deg)": 284.96939256542913,
        "Satellite Name": "Starlink Shell 1 1254",
        "Satellite Number": 1254,
        "Semi-Major Axis(m)": 6931778.249405717,
        "Time(s)": 590
    },
    {
        "Altitude(m)": 554925.0300993086,
        "Argument of Periapsis(deg)": 0.020914708770674213,
        "Eccentricity": 0.0,
        "Inclination(deg)": 53.0,
        "Latitude(deg)": 29.27353418347744,
        "Longitude(deg)": -152.66598133988302,
        "Mean Anomaly(deg)": 37.60987221340291,
        "RAAN(deg)": 284.9688737953516,
        "Satellite Name": "Starlink Shell 1 1254",
        "Satellite Number": 1254,
        "Semi-Major Axis(m)": 6931778.249405717,
        "Time(s)": 600
    },
    {
        "Altitude(m)": 554997.0728214907,
        "Argument of Periapsis(deg)": 0.021263287250185448,
        "Eccentricity": 0.0,
        "Inclination(deg)": 53.0,
        "Latitude(deg)": 29.728995402154304,
        "Longitude(deg)": -152.21071520245462,
        "Mean Anomaly(deg)": 38.23670341695966,
        "RAAN(deg)": 284.9683550252741,
        "Satellite Name": "Starlink Shell 1 1254",
        "Satellite Number": 1254,
        "Semi-Major Axis(m)": 6931778.249405717,
        "Time(s)": 610
    },
    {
        "Altitude(m)": 555070.210114006,
        "Argument of Periapsis(deg)": 0.021611865729696686,
        "Eccentricity": 0.0,
        "Inclination(deg)": 53.0,
        "Latitude(deg)": 30.182546125282464,
        "Longitude(deg)": -151.7509567461781,
        "Mean Anomaly(deg)": 38.8635346205163,
        "RAAN(deg)": 284.9678362551967,
        "Satellite Name": "Starlink Shell 1 1254",
        "Satellite Number": 1254,
        "Semi-Major Axis(m)": 6931778.249405717,
        "Time(s)": 620
    },
    {
        "Altitude(m)": 555144.3883037664,
        "Argument of Periapsis(deg)": 0.02196044420920792,
        "Eccentricity": 0.0,
        "Inclination(deg)": 53.0,
        "Latitude(deg)": 30.63413432114447,
        "Longitude(deg)": -151.28660119425098,
        "Mean Anomaly(deg)": 39.490365824073045,
        "RAAN(deg)": 284.9673174851192,
        "Satellite Name": "Starlink Shell 1 1254",
        "Satellite Number": 1254,
        "Semi-Major Axis(m)": 6931778.249405717,
        "Time(s)": 630
    },
    {
        "Altitude(m)": 555219.5533886112,
        "Argument of Periapsis(deg)": 0.02230902268871916,
        "Eccentricity": 0.0,
        "Inclination(deg)": 53.0,
        "Latitude(deg)": 31.08370677705191,
        "Longitude(deg)": -150.81754181007443,
        "Mean Anomaly(deg)": 40.11719702762979,
        "RAAN(deg)": 284.9667987150417,
        "Satellite Name": "Starlink Shell 1 1254",
        "Satellite Number": 1254,
        "Semi-Major Axis(m)": 6931778.249405717,
        "Time(s)": 640
    },
    {
        "Altitude(m)": 555295.6510657477,
        "Argument of Periapsis(deg)": 0.022657601168230398,
        "Eccentricity": 0.0,
        "Inclination(deg)": 53.0,
        "Latitude(deg)": 31.53120906730152,
        "Longitude(deg)": -150.34367109258002,
        "Mean Anomaly(deg)": 40.74402823118649,
        "RAAN(deg)": 284.9662799449643,
        "Satellite Name": "Starlink Shell 1 1254",
        "Satellite Number": 1254,
        "Semi-Major Axis(m)": 6931778.249405717,
        "Time(s)": 650
    },
    {
        "Altitude(m)": 555372.6267602603,
        "Argument of Periapsis(deg)": 0.023006179647741636,
        "Eccentricity": 0.0,
        "Inclination(deg)": 53.0,
        "Latitude(deg)": 31.976585520837588,
        "Longitude(deg)": -149.86488029516272,
        "Mean Anomaly(deg)": 41.37085943474324,
        "RAAN(deg)": 284.9657611748868,
        "Satellite Name": "Starlink Shell 1 1254",
        "Satellite Number": 1254,
        "Semi-Major Axis(m)": 6931778.249405717,
        "Time(s)": 660
    },
    {
        "Altitude(m)": 555450.4256537348,
        "Argument of Periapsis(deg)": 0.023354758127252868,
        "Eccentricity": 0.0,
        "Inclination(deg)": 53.0,
        "Latitude(deg)": 32.419779188670994,
        "Longitude(deg)": -149.38105894954407,
        "Mean Anomaly(deg)": 41.99769063829988,
        "RAAN(deg)": 284.9652424048093,
        "Satellite Name": "Starlink Shell 1 1254",
        "Satellite Number": 1254,
        "Semi-Major Axis(m)": 6931778.249405717,
        "Time(s)": 670
    },
    {
        "Altitude(m)": 555528.9927129474,
        "Argument of Periapsis(deg)": 0.023703336606764106,
        "Eccentricity": 0.0,
        "Inclination(deg)": 53.0,
        "Latitude(deg)": 32.86073181111216,
        "Longitude(deg)": -148.89209590781144,
        "Mean Anomaly(deg)": 42.62452184185663,
        "RAAN(deg)": 284.96472363473185,
        "Satellite Name": "Starlink Shell 1 1254",
        "Satellite Number": 1254,
        "Semi-Major Axis(m)": 6931778.249405717,
        "Time(s)": 680
    },
    {
        "Altitude(m)": 555608.2727186207,
        "Argument of Periapsis(deg)": 0.024051915086275345,
        "Eccentricity": 0.0,
        "Inclination(deg)": 53.0,
        "Latitude(deg)": 33.29938378487065,
        "Longitude(deg)": -148.39787887728258,
        "Mean Anomaly(deg)": 43.251353045413374,
        "RAAN(deg)": 284.96420486465433,
        "Satellite Name": "Starlink Shell 1 1254",
        "Satellite Number": 1254,
        "Semi-Major Axis(m)": 6931778.249405717,
        "Time(s)": 690
    },
    {
        "Altitude(m)": 555688.2102942091,
        "Argument of Periapsis(deg)": 0.024400493565786583,
        "Eccentricity": 0.0,
        "Inclination(deg)": 53.0,
        "Latitude(deg)": 33.73567413009325,
        "Longitude(deg)": -147.89829396147977,
        "Mean Anomaly(deg)": 43.87818424897007,
        "RAAN(deg)": 284.9636860945769,
        "Satellite Name": "Starlink Shell 1 1254",
        "Satellite Number": 1254,
        "Semi-Major Axis(m)": 6931778.249405717,
        "Time(s)": 700
    },
    {
        "Altitude(m)": 555768.7499347352,
        "Argument of Periapsis(deg)": 0.024749072045297815,
        "Eccentricity": 0.0,
        "Inclination(deg)": 53.0,
        "Latitude(deg)": 34.16954045741587,
        "Longitude(deg)": -147.39322672052256,
        "Mean Anomaly(deg)": 44.50501545252681,
        "RAAN(deg)": 284.96316732449947,
        "Satellite Name": "Starlink Shell 1 1254",
        "Satellite Number": 1254,
        "Semi-Major Axis(m)": 6931778.249405717,
        "Time(s)": 710
    },
    {
        "Altitude(m)": 555849.8360356329,
        "Argument of Periapsis(deg)": 0.025097650524809053,
        "Eccentricity": 0.0,
        "Inclination(deg)": 53.0,
        "Latitude(deg)": 34.60091893510722,
        "Longitude(deg)": -146.88256172564638,
        "Mean Anomaly(deg)": 45.13184665608346,
        "RAAN(deg)": 284.96264855442195,
        "Satellite Name": "Starlink Shell 1 1254",
        "Satellite Number": 1254,
        "Semi-Major Axis(m)": 6931778.249405717,
        "Time(s)": 720
    },
    {
        "Altitude(m)": 555931.4129215922,
        "Argument of Periapsis(deg)": 0.02544622900432029,
        "Eccentricity": 0.0,
        "Inclination(deg)": 53.0,
        "Latitude(deg)": 35.029744256397876,
        "Longitude(deg)": -146.36618212119518,
        "Mean Anomaly(deg)": 45.75867785964021,
        "RAAN(deg)": 284.9621297843444,
        "Satellite Name": "Starlink Shell 1 1254",
        "Satellite Number": 1254,
        "Semi-Major Axis(m)": 6931778.249405717,
        "Time(s)": 730
    },
    {
        "Altitude(m)": 556013.4248754048,
        "Argument of Periapsis(deg)": 0.02579480748383153,
        "Eccentricity": 0.0,
        "Inclination(deg)": 53.0,
        "Latitude(deg)": 35.455949607096734,
        "Longitude(deg)": -145.84397070745607,
        "Mean Anomaly(deg)": 46.385509063196956,
        "RAAN(deg)": 284.961611014267,
        "Satellite Name": "Starlink Shell 1 1254",
        "Satellite Number": 1254,
        "Semi-Major Axis(m)": 6931778.249405717,
        "Time(s)": 740
    },
    {
        "Altitude(m)": 556095.8161667627,
        "Argument of Periapsis(deg)": 0.026143385963342765,
        "Eccentricity": 0.0,
        "Inclination(deg)": 53.0,
        "Latitude(deg)": 35.87946663360006,
        "Longitude(deg)": -145.31580951910365,
        "Mean Anomaly(deg)": 47.01234026675365,
        "RAAN(deg)": 284.96109224418956,
        "Satellite Name": "Starlink Shell 1 1254",
        "Satellite Number": 1254,
        "Semi-Major Axis(m)": 6931778.249405717,
        "Time(s)": 750
    }
]